{
  "type": "FeatureCollection",
  "features": [
    { "type": "Feature", "geometry": { "type": "Point", "coordinates": [134.4215, 33.6345] },
      "properties": { "id": "d001", "dummy": true, "category": "rockfall", "severity": 3,
        "name_ja": "【サンプル】崖下の通路", "name_en": "[SAMPLE] Path below a cliff",
        "desc_ja": "サンプルです。崖の下を通る場所では、石が落ちてくる可能性があります。",
        "desc_en": "Sample only. Rocks may fall in places where the path runs below a cliff.",
        "action_ja": "立ち止まらず、ガイドの指示に従って通過してください。",
        "action_en": "Do not stop here. Pass through following the guide's instructions.",
        "photo": "", "warn_radius_m": 80, "updated_at": "2026-10-07" } },
    { "type": "Feature", "geometry": { "type": "Point", "coordinates": [134.4270, 33.6330] },
      "properties": { "id": "d002", "dummy": true, "category": "current", "severity": 2,
        "name_ja": "【サンプル】岬の沖の海域", "name_en": "[SAMPLE] Waters off the cape",
        "desc_ja": "サンプルです。岬の周辺では、潮の流れが速くなることがあります。",
        "desc_en": "Sample only. Tidal currents can be strong around capes.",
        "action_ja": "ライフジャケットを着用し、ガイドから離れないでください。",
        "action_en": "Wear a life jacket and stay close to your guide.",
        "photo": "", "warn_radius_m": 40, "updated_at": "2026-10-07" } },
    { "type": "Feature", "geometry": { "type": "Point", "coordinates": [134.4235, 33.6320] },
      "properties": { "id": "d003", "dummy": true, "category": "footing", "severity": 1,
        "name_ja": "【サンプル】濡れた石段", "name_en": "[SAMPLE] Wet stone steps",
        "desc_ja": "サンプルです。雨のあとは、石段が滑りやすくなることがあります。",
        "desc_en": "Sample only. Stone steps can become slippery after rain.",
        "action_ja": "手すりを使い、足元を見てゆっくり歩いてください。",
        "action_en": "Use the handrail and walk slowly, watching your step.",
        "photo": "", "warn_radius_m": 20, "updated_at": "2026-10-07" } },
    { "type": "Feature", "geometry": { "type": "Point", "coordinates": [134.4250, 33.6355] },
      "properties": { "id": "d004", "dummy": true, "category": "wildlife", "severity": 2,
        "name_ja": "【サンプル】草むらの小道", "name_en": "[SAMPLE] Grassy trail",
        "desc_ja": "サンプルです。草むらでは、ヘビや虫に出会うことがあります。",
        "desc_en": "Sample only. You may encounter snakes or insects in tall grass.",
        "action_ja": "草むらには入らず、長ズボンと靴を着用してください。",
        "action_en": "Stay out of the grass, and wear long pants and closed shoes.",
        "photo": "", "warn_radius_m": 40, "updated_at": "2026-10-07" } },
    { "type": "Feature", "geometry": { "type": "Point", "coordinates": [134.4380, 33.6340] },
      "properties": { "id": "d005", "dummy": true, "category": "vessel", "severity": 3,
        "name_ja": "【サンプル】連絡船の航路付近", "name_en": "[SAMPLE] Near the ferry route",
        "desc_ja": "サンプルです。連絡船が通る航路の近くでは、船と接近することがあります。",
        "desc_en": "Sample only. Boats may pass close to you near the ferry route.",
        "action_ja": "航路を横切らないでください。船の接近に注意してください。",
        "action_en": "Do not cross the route. Keep watch for approaching boats.",
        "photo": "", "warn_radius_m": 80, "updated_at": "2026-10-07" } },
    { "type": "Feature", "geometry": { "type": "Point", "coordinates": [134.4900, 33.6365] },
      "properties": { "id": "o001", "dummy": true, "category": "rockfall", "severity": 2,
        "name_ja": "【サンプル】磯の斜面", "name_en": "[SAMPLE] Rocky shore slope",
        "desc_ja": "サンプルです。磯の斜面では、小さな石が崩れることがあります。",
        "desc_en": "Sample only. Small rocks may come loose on rocky shore slopes.",
        "action_ja": "ヘルメットを着用し、斜面の下に長くとどまらないでください。",
        "action_en": "Wear a helmet and do not stay long at the foot of the slope.",
        "photo": "", "warn_radius_m": 40, "updated_at": "2026-10-07" } },
    { "type": "Feature", "geometry": { "type": "Point", "coordinates": [134.4935, 33.6350] },
      "properties": { "id": "o002", "dummy": true, "category": "current", "severity": 3,
        "name_ja": "【サンプル】島の東側の海域", "name_en": "[SAMPLE] Waters on the east side of the island",
        "desc_ja": "サンプルです。外海に面した場所では、波が高くなることがあります。",
        "desc_en": "Sample only. Waves can be high in places facing the open sea.",
        "action_ja": "天候と波の状況はガイドが判断します。指示に従ってください。",
        "action_en": "The guide will judge weather and sea conditions. Follow their instructions.",
        "photo": "", "warn_radius_m": 80, "updated_at": "2026-10-07" } },
    { "type": "Feature", "geometry": { "type": "Point", "coordinates": [134.4880, 33.6375] },
      "properties": { "id": "o003", "dummy": true, "category": "other", "severity": 1,
        "name_ja": "【サンプル】日陰の少ない場所", "name_en": "[SAMPLE] Area with little shade",
        "desc_ja": "サンプルです。日陰が少なく、暑い日には熱中症に注意が必要です。",
        "desc_en": "Sample only. There is little shade; watch for heat illness on hot days.",
        "action_ja": "帽子と飲み物を持ち、こまめに休憩してください。",
        "action_en": "Bring a hat and drinks, and take frequent breaks.",
        "photo": "", "warn_radius_m": 20, "updated_at": "2026-10-07" } }
  ]
}
